SHIYAN-1 (SY-1)         
1 28220U 04012A   26068.73650539  .00016393  00000+0  54854-3 0  9991
2 28220  97.8764 140.5238 0005873  23.6952 336.4557 15.31043463195862
STARLINK-31776          
1 59603U 24080C   26067.99670063 -.00002233  00000+0 -71644-4 0  9995
2 59603  43.0020  45.5431 0000633 250.5881 109.4903 15.27580845104384
